start=new Date('2023-05-29T00:00:00.000Z').valueOf();
sats=[{"ARG_OF_PERICENTER":"73.1978","MEAN_ANOMALY":"286.9126","ELEMENT_SET_NO":"999","TIME_SYSTEM":"UTC","ECCENTRICITY":"0.00010490","MEAN_MOTION":"15.06430783","TLE_LINE2":"2 47587  53.0534 252.5680 0001049  73.1978 286.9126 15.06430783127809","EPHEMERIS_TYPE":"0","OBJECT_ID":"2021-009AR","INCLINATION":"53.0534","EPOCH":"2023-05-28T16:49:38.045856","DECAY_DATE":null,"FILE":"3919546","SITE":"AFETR","OBJECT_NAME":"STARLINK-1991","SEMIMAJOR_AXIS":"6925.254","CENTER_NAME":"EARTH","COUNTRY_CODE":"US","REF_FRAME":"TEME","OBJECT_TYPE":"PAYLOAD","RA_OF_ASC_NODE":"252.5680","NORAD_CAT_ID":"47587","PERIOD":"95.590","MEAN_MOTION_DDOT":"0.0000000000000","RCS_SIZE":"LARGE","CLASSIFICATION_TYPE":"U","GP_ID":"232703797","REV_AT_EPOCH":"12780","MEAN_ELEMENT_THEORY":"SGP4","BSTAR":"0.00125130000000","MEAN_MOTION_DOT":"0.00018421","TLE_LINE1":"1 47587U 21009AR  23148.70113479  .00018421  00000-0  12513-2 0  9993","APOAPSIS":"547.846","PERIAPSIS":"546.393","LAUNCH_DATE":"2021-02-04"},{"CENTER_NAME":"EARTH","COUNTRY_CODE":"US","SEMIMAJOR_AXIS":"6925.291","OBJECT_NAME":"STARLINK-1993","REF_FRAME":"TEME","NORAD_CAT_ID":"47588","RA_OF_ASC_NODE":"262.6087","OBJECT_TYPE":"PAYLOAD","EPOCH":"2023-05-28T16:37:41.221344","INCLINATION":"53.0522","DECAY_DATE":null,"FILE":"3919546","SITE":"AFETR","TIME_SYSTEM":"UTC","ECCENTRICITY":"0.00009690","EPHEMERIS_TYPE":"0","OBJECT_ID":"2021-009AS","TLE_LINE2":"2 47588  53.0522 262.6087 0000969 106.7335 253.3760 15.06418744127669","MEAN_MOTION":"15.06418744","ARG_OF_PERICENTER":"106.7335","ELEMENT_SET_NO":"999","MEAN_ANOMALY":"253.3760","TLE_LINE1":"1 47588U 21009AS  23148.69283821  .00018715  00000-0  12713-2 0  9999","APOAPSIS":"547.827","PERIAPSIS":"546.485","LAUNCH_DATE":"2021-02-04","MEAN_MOTION_DOT":"0.00018715","GP_ID":"232703547","REV_AT_EPOCH":"12766","MEAN_ELEMENT_THEORY":"SGP4","BSTAR":"0.00127130000000","MEAN_MOTION_DDOT":"0.0000000000000","PERIOD":"95.591","CLASSIFICATION_TYPE":"U","RCS_SIZE":"LARGE"},{"MEAN_ELEMENT_THEORY":"SGP4","GP_ID":"232704799","REV_AT_EPOCH":"12766","BSTAR":"0.00154040000000","PERIOD":"95.591","MEAN_MOTION_DDOT":"0.0000000000000","RCS_SIZE":"LARGE","CLASSIFICATION_TYPE":"U","APOAPSIS":"547.853","TLE_LINE1":"1 47589U 21009AT  23148.71127372  .00022753  00000-0  15404-2 0  9998","PERIAPSIS":"546.420","LAUNCH_DATE":"2021-02-04","MEAN_MOTION_DOT":"0.00022753","TIME_SYSTEM":"UTC","TLE_LINE2":"2 47589  53.0531 262.5201 0001035  97.4058 262.7048 15.06425115127663","MEAN_MOTION":"15.06425115","EPHEMERIS_TYPE":"0","OBJECT_ID":"2021-009AT","ECCENTRICITY":"0.00010350","ARG_OF_PERICENTER":"97.4058","MEAN_ANOMALY":"262.7048","ELEMENT_SET_NO":"999","SEMIMAJOR_AXIS":"6925.272","OBJECT_NAME":"STARLINK-1994","COUNTRY_CODE":"US","CENTER_NAME":"EARTH","RA_OF_ASC_NODE":"262.5201","OBJECT_TYPE":"PAYLOAD","NORAD_CAT_ID":"47589","REF_FRAME":"TEME","EPOCH":"2023-05-28T17:04:14.049408","INCLINATION":"53.0531","SITE":"AFETR","FILE":"3919546","DECAY_DATE":null},{"PERIOD":"95.591","MEAN_MOTION_DDOT":"0.0000000000000","RCS_SIZE":"LARGE","CLASSIFICATION_TYPE":"U","GP_ID":"232704549","REV_AT_EPOCH":"12737","MEAN_ELEMENT_THEORY":"SGP4","BSTAR":"0.00126380000000","MEAN_MOTION_DOT":"0.00018602","TLE_LINE1":"1 47590U 21009AU  23148.63571239  .00018602  00000-0  12638-2 0  9990","APOAPSIS":"547.957","LAUNCH_DATE":"2021-02-04","PERIAPSIS":"546.363","ARG_OF_PERICENTER":"70.3372","MEAN_ANOMALY":"289.7741","ELEMENT_SET_NO":"999","TIME_SYSTEM":"UTC","ECCENTRICITY":"0.00011510","MEAN_MOTION":"15.06417564","TLE_LINE2":"2 47590  53.0539 282.8619 0001151  70.3372 289.7741 15.06417564127375","OBJECT_ID":"2021-009AU","EPHEMERIS_TYPE":"0","INCLINATION":"53.0539","EPOCH":"2023-05-28T15:15:25.550496","DECAY_DATE":null,"FILE":"3919546","SITE":"AFETR","OBJECT_NAME":"STARLINK-1995","SEMIMAJOR_AXIS":"6925.295","COUNTRY_CODE":"US","CENTER_NAME":"EARTH","REF_FRAME":"TEME","OBJECT_TYPE":"PAYLOAD","RA_OF_ASC_NODE":"282.8619","NORAD_CAT_ID":"47590"},{"BSTAR":"0.00076308000000","MEAN_ELEMENT_THEORY":"SGP4","REV_AT_EPOCH":"12766","GP_ID":"232703297","CLASSIFICATION_TYPE":"U","RCS_SIZE":"LARGE","MEAN_MOTION_DDOT":"0.0000000000000","PERIOD":"95.592","PERIAPSIS":"546.821","LAUNCH_DATE":"2021-02-04","APOAPSIS":"547.555","TLE_LINE1":"1 47591U 21009AV  23148.70758781  .00011105  00000-0  76308-3 0  9994","MEAN_MOTION_DOT":"0.00011105","EPHEMERIS_TYPE":"0","OBJECT_ID":"2021-009AV","MEAN_MOTION":"15.06408278","TLE_LINE2":"2 47591  53.0525 262.5409 0000530  97.5521 262.5529 15.06408278127667","ECCENTRICITY":"0.00005300","TIME_SYSTEM":"UTC","ELEMENT_SET_NO":"999","MEAN_ANOMALY":"262.5529","ARG_OF_PERICENTER":"97.5521","NORAD_CAT_ID":"47591","RA_OF_ASC_NODE":"262.5409","OBJECT_TYPE":"PAYLOAD","REF_FRAME":"TEME","COUNTRY_CODE":"US","CENTER_NAME":"EARTH","SEMIMAJOR_AXIS":"6925.323","OBJECT_NAME":"STARLINK-1996","SITE":"AFETR","DECAY_DATE":null,"FILE":"3919546","INCLINATION":"53.0525","EPOCH":"2023-05-28T16:58:55.586784"},{"BSTAR":"0.00147960000000","REV_AT_EPOCH":"12737","GP_ID":"232704048","MEAN_ELEMENT_THEORY":"SGP4","RCS_SIZE":"LARGE","CLASSIFICATION_TYPE":"U","PERIOD":"95.591","MEAN_MOTION_DDOT":"0.0000000000000","PERIAPSIS":"546.820","LAUNCH_DATE":"2021-02-04","TLE_LINE1":"1 47592U 21009AW  23148.67256966  .00021836  00000-0  14796-2 0  9993","APOAPSIS":"547.503","MEAN_MOTION_DOT":"0.00021836","ECCENTRICITY":"0.00004930","MEAN_MOTION":"15.06417098","TLE_LINE2":"2 47592  53.0542 282.6978 0000493  95.1566 264.9480 15.06417098127372","EPHEMERIS_TYPE":"0","OBJECT_ID":"2021-009AW","TIME_SYSTEM":"UTC","MEAN_ANOMALY":"264.9480","ELEMENT_SET_NO":"999","ARG_OF_PERICENTER":"95.1566","REF_FRAME":"TEME","RA_OF_ASC_NODE":"282.6978","OBJECT_TYPE":"PAYLOAD","NORAD_CAT_ID":"47592","OBJECT_NAME":"STARLINK-1997","SEMIMAJOR_AXIS":"6925.296","CENTER_NAME":"EARTH","COUNTRY_CODE":"US","DECAY_DATE":null,"FILE":"3919546","SITE":"AFETR","EPOCH":"2023-05-28T16:08:30.018624","INCLINATION":"53.0542"},{"MEAN_MOTION_DOT":"0.00023240","PERIAPSIS":"546.394","LAUNCH_DATE":"2021-02-04","APOAPSIS":"547.900","TLE_LINE1":"1 47593U 21009AX  23148.64308441  .00023240  00000-0  15730-2 0  9997","RCS_SIZE":"LARGE","CLASSIFICATION_TYPE":"U","PERIOD":"95.591","MEAN_MOTION_DDOT":"0.0000000000000","BSTAR":"0.00157300000000","MEAN_ELEMENT_THEORY":"SGP4","REV_AT_EPOCH":"12737","GP_ID":"232704299","SITE":"AFETR","DECAY_DATE":null,"FILE":"3919546","INCLINATION":"53.0523","EPOCH":"2023-05-28T15:26:02.493024","OBJECT_TYPE":"PAYLOAD","RA_OF_ASC_NODE":"282.8309","NORAD_CAT_ID":"47593","REF_FRAME":"TEME","OBJECT_NAME":"STARLINK-1998","SEMIMAJOR_AXIS":"6925.282","CENTER_NAME":"EARTH","COUNTRY_CODE":"US","MEAN_ANOMALY":"265.7975","ELEMENT_SET_NO":"999","ARG_OF_PERICENTER":"94.3138","MEAN_MOTION":"15.06421640","TLE_LINE2":"2 47593  53.0523 282.8309 0001087  94.3138 265.7975 15.06421640127374","OBJECT_ID":"2021-009AX","EPHEMERIS_TYPE":"0","ECCENTRICITY":"0.00010870","TIME_SYSTEM":"UTC"},{"SEMIMAJOR_AXIS":"6925.228","OBJECT_NAME":"STARLINK-1999","COUNTRY_CODE":"US","CENTER_NAME":"EARTH","REF_FRAME":"TEME","RA_OF_ASC_NODE":"282.0866","OBJECT_TYPE":"PAYLOAD","NORAD_CAT_ID":"47594","INCLINATION":"53.0537","EPOCH":"2023-05-28T19:24:52.402176","FILE":"3919546","DECAY_DATE":null,"SITE":"AFETR","TIME_SYSTEM":"UTC","ECCENTRICITY":"0.00007010","TLE_LINE2":"2 47594  53.0537 282.0866 0000701 101.1264 258.9804 15.06439177127390","MEAN_MOTION":"15.06439177","OBJECT_ID":"2021-009AY","EPHEMERIS_TYPE":"0","ARG_OF_PERICENTER":"101.1264","MEAN_ANOMALY":"258.9804","ELEMENT_SET_NO":"999","TLE_LINE1":"1 47594U 21009AY  23148.80893984  .00026723  00000-0  18042-2 0  9995","APOAPSIS":"547.579","LAUNCH_DATE":"2021-02-04","PERIAPSIS":"546.608","MEAN_MOTION_DOT":"0.00026723","GP_ID":"232705050","REV_AT_EPOCH":"12739","MEAN_ELEMENT_THEORY":"SGP4","BSTAR":"0.00180420000000","PERIOD":"95.590","MEAN_MOTION_DDOT":"0.0000000000000","RCS_SIZE":"LARGE","CLASSIFICATION_TYPE":"U"},{"PERIAPSIS":"546.562","LAUNCH_DATE":"2021-02-04","APOAPSIS":"547.747","TLE_LINE1":"1 47595U 21009AZ  23148.66151072  .00022640  00000-0  15331-2 0  9997","MEAN_MOTION_DOT":"0.00022640","BSTAR":"0.00153310000000","MEAN_ELEMENT_THEORY":"SGP4","REV_AT_EPOCH":"12737","GP_ID":"232705051","RCS_SIZE":"LARGE","CLASSIFICATION_TYPE":"U","PERIOD":"95.591","MEAN_MOTION_DDOT":"0.0000000000000","RA_OF_ASC_NODE":"282.7478","OBJECT_TYPE":"PAYLOAD","NORAD_CAT_ID":"47595","REF_FRAME":"TEME","OBJECT_NAME":"STARLINK-2000","SEMIMAJOR_AXIS":"6925.290","COUNTRY_CODE":"US","CENTER_NAME":"EARTH","SITE":"AFETR","DECAY_DATE":null,"FILE":"3919546","INCLINATION":"53.0540","EPOCH":"2023-05-28T15:52:34.526208","MEAN_MOTION":"15.06419269","TLE_LINE2":"2 47595  53.0540 282.7478 0000855 101.7560 258.3525 15.06419269127378","OBJECT_ID":"2021-009AZ","EPHEMERIS_TYPE":"0","ECCENTRICITY":"0.00008550","TIME_SYSTEM":"UTC","MEAN_ANOMALY":"258.3525","ELEMENT_SET_NO":"999","ARG_OF_PERICENTER":"101.7560"},{"SITE":"AFETR","FILE":"3919546","DECAY_DATE":null,"EPOCH":"2023-05-28T15:57:52.988832","INCLINATION":"53.0538","OBJECT_TYPE":"PAYLOAD","RA_OF_ASC_NODE":"282.7286","NORAD_CAT_ID":"47596","REF_FRAME":"TEME","SEMIMAJOR_AXIS":"6925.318","OBJECT_NAME":"STARLINK-2001","COUNTRY_CODE":"US","CENTER_NAME":"EARTH","MEAN_ANOMALY":"255.4362","ELEMENT_SET_NO":"999","ARG_OF_PERICENTER":"104.6725","MEAN_MOTION":"15.06410049","TLE_LINE2":"2 47596  53.0538 282.7286 0000888 104.6725 255.4362 15.06410049127378","EPHEMERIS_TYPE":"0","OBJECT_ID":"2021-009BA","ECCENTRICITY":"0.00008880","TIME_SYSTEM":"UTC","MEAN_MOTION_DOT":"0.00016352","PERIAPSIS":"546.568","LAUNCH_DATE":"2021-02-04","APOAPSIS":"547.798","TLE_LINE1":"1 47596U 21009BA  23148.66519663  .00016352  00000-0  11138-2 0  9996","RCS_SIZE":"LARGE","CLASSIFICATION_TYPE":"U","PERIOD":"95.592","MEAN_MOTION_DDOT":"0.0000000000000","BSTAR":"0.00111380000000","MEAN_ELEMENT_THEORY":"SGP4","GP_ID":"232705802","REV_AT_EPOCH":"12737"}];
